{
  "type": "FeatureCollection",
  "features": [
    {
      "type": "Feature",
      "properties": {
        "norad_id": 39773,
        "name": "EUTELSAT 3B",
        "group": "eutelsat",
        "lat": -0.049804594144475654,
        "lon": -55.128411651416734,
        "alt_km": 35781.440038465866,
        "timestamp": "2025-12-09T14:52:25.837415+00:00",
        "meta_object_name": "EUTELSAT 3B",
        "meta_object_id": "2014-030A",
        "meta_epoch": "2025-12-09T05:01:35.702400",
        "meta_mean_motion": 1.00271348,
        "meta_eccentricity": 0.00047582,
        "meta_inclination": 0.0635,
        "meta_ra_of_asc_node": 341.2168,
        "meta_arg_of_pericenter": 247.0648,
        "meta_mean_anomaly": 288.4276,
        "meta_ephemeris_type": 0,
        "meta_classification_type": "U",
        "meta_norad_cat_id": 39773,
        "meta_element_set_no": 999,
        "meta_rev_at_epoch": 4216,
        "meta_bstar": 0,
        "meta_mean_motion_dot": 2.2e-07,
        "meta_mean_motion_ddot": 0,
        "tle_line1": "1 39773U 14030A   25343.20944100  .00000022  00000+0  00000+0 0  9996",
        "tle_line2": "2 39773   0.0635 341.2168 0004758 247.0648 288.4276  1.00271348 42161"
      },
      "geometry": {
        "type": "Point",
        "coordinates": [
          -55.128411651416734,
          -0.049804594144475654
        ]
      }
    },
    {
      "type": "Feature",
      "properties": {
        "norad_id": 40425,
        "name": "EUTELSAT 115 WEST B",
        "group": "eutelsat",
        "lat": 0.005338226046564063,
        "lon": -173.18593155768983,
        "alt_km": 35787.294954654295,
        "timestamp": "2025-12-09T14:52:25.837427+00:00",
        "meta_object_name": "EUTELSAT 115 WEST B",
        "meta_object_id": "2015-010B",
        "meta_epoch": "2025-12-09T01:01:30.855936",
        "meta_mean_motion": 1.00268138,
        "meta_eccentricity": 2.776e-05,
        "meta_inclination": 0.0085,
        "meta_ra_of_asc_node": 146.6018,
        "meta_arg_of_pericenter": 300.0024,
        "meta_mean_anomaly": 251.9196,
        "meta_ephemeris_type": 0,
        "meta_classification_type": "U",
        "meta_norad_cat_id": 40425,
        "meta_element_set_no": 999,
        "meta_rev_at_epoch": 3948,
        "meta_bstar": 0,
        "meta_mean_motion_dot": -2.2e-07,
        "meta_mean_motion_ddot": 0,
        "tle_line1": "1 40425U 15010B   25343.04271824 -.00000022  00000+0  00000+0 0  9990",
        "tle_line2": "2 40425   0.0085 146.6018 0000277 300.0024 251.9196  1.00268138 39487"
      },
      "geometry": {
        "type": "Point",
        "coordinates": [
          -173.18593155768983,
          0.005338226046564063
        ]
      }
    },
    {
      "type": "Feature",
      "properties": {
        "norad_id": 40875,
        "name": "EUTELSAT 8 WEST B",
        "group": "eutelsat",
        "lat": -0.07479567627295289,
        "lon": -66.24604706519183,
        "alt_km": 35771.62167876773,
        "timestamp": "2025-12-09T14:52:25.837439+00:00",
        "meta_object_name": "EUTELSAT 8 WEST B",
        "meta_object_id": "2015-039B",
        "meta_epoch": "2025-12-09T04:58:28.501248",
        "meta_mean_motion": 1.00271473,
        "meta_eccentricity": 0.0004155,
        "meta_inclination": 0.0645,
        "meta_ra_of_asc_node": 0.0958,
        "meta_arg_of_pericenter": 259.4526,
        "meta_mean_anomaly": 245.2869,
        "meta_ephemeris_type": 0,
        "meta_classification_type": "U",
        "meta_norad_cat_id": 40875,
        "meta_element_set_no": 999,
        "meta_rev_at_epoch": 3775,
        "meta_bstar": 0,
        "meta_mean_motion_dot": -6.4e-07,
        "meta_mean_motion_ddot": 0,
        "tle_line1": "1 40875U 15039B   25343.20727432 -.00000064  00000+0  00000+0 0  9995",
        "tle_line2": "2 40875   0.0645   0.0958 0004155 259.4526 245.2869  1.00271473 37754"
      },
      "geometry": {
        "type": "Point",
        "coordinates": [
          -66.24604706519183,
          -0.07479567627295289
        ]
      }
    },
    {
      "type": "Feature",
      "properties": {
        "norad_id": 41310,
        "name": "EUTELSAT 9B",
        "group": "eutelsat",
        "lat": -0.04300513299911791,
        "lon": -49.23459815544996,
        "alt_km": 35771.57657170092,
        "timestamp": "2025-12-09T14:52:25.837451+00:00",
        "meta_object_name": "EUTELSAT 9B",
        "meta_object_id": "2016-005A",
        "meta_epoch": "2025-12-09T05:03:20.534976",
        "meta_mean_motion": 1.00272145,
        "meta_eccentricity": 0.00048835,
        "meta_inclination": 0.036,
        "meta_ra_of_asc_node": 53.1251,
        "meta_arg_of_pericenter": 211.7187,
        "meta_mean_anomaly": 258.2085,
        "meta_ephemeris_type": 0,
        "meta_classification_type": "U",
        "meta_norad_cat_id": 41310,
        "meta_element_set_no": 999,
        "meta_rev_at_epoch": 3621,
        "meta_bstar": 0,
        "meta_mean_motion_dot": 6.4e-07,
        "meta_mean_motion_ddot": 0,
        "tle_line1": "1 41310U 16005A   25343.21065434  .00000064  00000+0  00000+0 0  9991",
        "tle_line2": "2 41310   0.0360  53.1251 0004883 211.7187 258.2085  1.00272145 36211"
      },
      "geometry": {
        "type": "Point",
        "coordinates": [
          -49.23459815544996,
          -0.04300513299911791
        ]
      }
    },
    {
      "type": "Feature",
      "properties": {
        "norad_id": 41382,
        "name": "EUTELSAT 65 WEST A",
        "group": "eutelsat",
        "lat": -0.05790941668820367,
        "lon": -123.50815186731568,
        "alt_km": 35775.85963082312,
        "timestamp": "2025-12-09T14:52:25.837462+00:00",
        "meta_object_name": "EUTELSAT 65 WEST A",
        "meta_object_id": "2016-014A",
        "meta_epoch": "2025-12-09T06:19:18.594624",
        "meta_mean_motion": 1.00272937,
        "meta_eccentricity": 0.00026539,
        "meta_inclination": 0.0495,
        "meta_ra_of_asc_node": 4.0642,
        "meta_arg_of_pericenter": 260.1525,
        "meta_mean_anomaly": 203.6598,
        "meta_ephemeris_type": 0,
        "meta_classification_type": "U",
        "meta_norad_cat_id": 41382,
        "meta_element_set_no": 999,
        "meta_rev_at_epoch": 3563,
        "meta_bstar": 0,
        "meta_mean_motion_dot": -2.74e-06,
        "meta_mean_motion_ddot": 0,
        "tle_line1": "1 41382U 16014A   25343.26340966 -.00000274  00000+0  00000+0 0  9995",
        "tle_line2": "2 41382   0.0495   4.0642 0002653 260.1525 203.6598  1.00272937 35632"
      },
      "geometry": {
        "type": "Point",
        "coordinates": [
          -123.50815186731568,
          -0.05790941668820367
        ]
      }
    },
    {
      "type": "Feature",
      "properties": {
        "norad_id": 41589,
        "name": "EUTELSAT 117 WEST B",
        "group": "eutelsat",
        "lat": 0.005300287394022157,
        "lon": -175.27822351811304,
        "alt_km": 35786.48899208832,
        "timestamp": "2025-12-09T14:52:25.837480+00:00",
        "meta_object_name": "EUTELSAT 117 WEST B",
        "meta_object_id": "2016-038B",
        "meta_epoch": "2025-12-09T01:01:58.310400",
        "meta_mean_motion": 1.00271867,
        "meta_eccentricity": 3.718e-05,
        "meta_inclination": 0.0079,
        "meta_ra_of_asc_node": 144.6605,
        "meta_arg_of_pericenter": 293.2905,
        "meta_mean_anomaly": 258.5865,
        "meta_ephemeris_type": 0,
        "meta_classification_type": "U",
        "meta_norad_cat_id": 41589,
        "meta_element_set_no": 999,
        "meta_rev_at_epoch": 3475,
        "meta_bstar": 0,
        "meta_mean_motion_dot": -1e-07,
        "meta_mean_motion_ddot": 0,
        "tle_line1": "1 41589U 16038B   25343.04303600 -.00000010  00000+0  00000+0 0  9998",
        "tle_line2": "2 41589   0.0079 144.6605 0000371 293.2905 258.5865  1.00271867 34752"
      },
      "geometry": {
        "type": "Point",
        "coordinates": [
          -175.27822351811304,
          0.005300287394022157
        ]
      }
    },
    {
      "type": "Feature",
      "properties": {
        "norad_id": 42741,
        "name": "EUTELSAT 172B",
        "group": "eutelsat",
        "lat": 0.004811487913505733,
        "lon": 113.71724048087208,
        "alt_km": 35786.89843261263,
        "timestamp": "2025-12-09T14:52:25.837506+00:00",
        "meta_object_name": "EUTELSAT 172B",
        "meta_object_id": "2017-029B",
        "meta_epoch": "2025-12-09T02:24:13.275360",
        "meta_mean_motion": 1.00270381,
        "meta_eccentricity": 1.541e-05,
        "meta_inclination": 0.0113,
        "meta_ra_of_asc_node": 92.4681,
        "meta_arg_of_pericenter": 154.1334,
        "meta_mean_anomaly": 39.5583,
        "meta_ephemeris_type": 0,
        "meta_classification_type": "U",
        "meta_norad_cat_id": 42741,
        "meta_element_set_no": 999,
        "meta_rev_at_epoch": 3182,
        "meta_bstar": 0,
        "meta_mean_motion_dot": -4e-08,
        "meta_mean_motion_ddot": 0,
        "tle_line1": "1 42741U 17029B   25343.10015365 -.00000004  00000+0  00000+0 0  9998",
        "tle_line2": "2 42741   0.0113  92.4681 0000154 154.1334  39.5583  1.00270381 31825"
      },
      "geometry": {
        "type": "Point",
        "coordinates": [
          113.71724048087208,
          0.004811487913505733
        ]
      }
    }
  ]
}